GLOBALSTAR M024         
1 25883U 99043A   24208.90491840  .00000001  00000+0  23240-2 0  9995
2 25883  52.0037  34.5676 0000758 320.5578 192.0510 11.10159351 78736
GLOBALSTAR M027         
1 25884U 99043B   24208.74143791 -.00000094  00000+0 -11560-2 0  9993
2 25884  52.0211 103.6988 0020736 184.8498 175.2097 11.04369089105283
GLOBALSTAR M053         
1 25886U 99043D   24208.78359211 -.00000063  00000+0  16102-3 0  9998
2 25886  51.9940 214.5544 0003798 251.8193 278.9723 11.27657338 82731
GLOBALSTAR M058         
1 25907U 99049A   24208.85857641 -.00000077  00000+0  10419-3 0  9996
2 25907  51.9927 257.8784 0001948  12.6522 347.4361 11.93179097502708
GLOBALSTAR M050         
1 25908U 99049B   24208.74258441  .00000031  00000+0  13503-2 0  9993
2 25908  51.9994 290.1781 0009537 105.3102  63.7299 12.07437138108873
GLOBALSTAR M033         
1 25909U 99049C   24208.92252002 -.00000101  00000+0 -85733-4 0  9997
2 25909  51.9893 183.9830 0012817 318.3262  41.6608 12.20273750496034
GLOBALSTAR M055         
1 25910U 99049D   24208.72706917 -.00000089  00000+0  44110-4 0  9994
2 25910  51.9986 211.1188 0007054 176.2745 183.8160 12.29405149128259
